02488   13.9   0.15 K107N 359.40814  300.84962   62.43084    6.89295  0.2245808  0.28933241   2.2639735  1 MPO 50329   261  12 1952-2003 0.64 M-v 38h MPCW       0000   (2488) Bryan              20030901
02489   12.0   0.15 K107N 146.61585  235.14206   56.44683    1.78487  0.1582554  0.18033352   3.1027854  0 MPO 47590   320  15 1954-2002 0.61 M-v 38h MPCW       0000   (2489) Suvorov            20020820
02490   11.9   0.15 K107N 121.31220  210.89848  212.66969   12.96604  0.1325486  0.23375312   2.6099435  0 MPO120681   491  20 1949-2007 0.62 M-v 38h MPCW       0000   (2490) Bussolini          20070510
02491   13.68  0.15 K107N  37.71452  358.16788  125.35478   22.86621  0.0544098  0.38302336   1.8778139  1 MPO130058   391  13 1977-2007 0.54 M-v 38h MPCW       0000   (2491) Tvashtri           20071120
02492   11.3   0.15 K107N 314.92150  263.03874   21.54562    0.83382  0.1425474  0.17323174   3.1870172  0 MPO 47590   489  19 1953-2003 0.67 M-v 38h MPCW       0000   (2492) Kutuzov            20030520
02493   12.5   0.15 K107N 356.40179  147.97164  205.92208    8.73196  0.1735857  0.21159578   2.7891041  0 MPO 41498   307  15 1954-2003 0.66 M-v 38h MPCW       0000   (2493) Elmer              20030205
02494   10.6   0.15 K107N 342.12687   98.49906  283.40692   11.53441  0.0705121  0.17523957   3.1626267  0 MPO 47590   236  16 1935-2002 0.73 M-v 38h MPCW       0000   (2494) Inge               20020521
02495   15.5   0.15 K107N 297.17792  136.53709  199.78264   21.12142  0.1025257  0.37118844   1.9175193  1 MPO 57621   192  10 1960-2004 0.61 M-v 38h MPCW       0000   (2495) Noviomagum         20040127
02496   13.1   0.15 K107N 196.78058  292.17110  163.29406    0.91640  0.0340827  0.30831721   2.1700556  0 MPO148743  1059  18 1953-2008 0.59 M-v 38h MPCW       0000   (2496) Fernandus          20081001
02497   12.9   0.15 K107N  71.13101  346.16537  307.06930    5.83574  0.2286459  0.24315579   2.5422191  1 MPO 38158   161  14 1950-2002 0.71 M-v 38h MPCW       0000   (2497) Kulikovskij        20021115
02498   11.7   0.15 K107N 226.13116    0.18916  331.94718    1.23479  0.0808499  0.19762312   2.9190681  0 MPO169562   836  22 1950-2009 0.58 M-v 38h MPCALB     0000   (2498) Tsesevich          20091216
02499   12.2   0.15 K107N 108.20934   54.79498  192.13575    0.74815  0.1253295  0.17989953   3.1077735  0 MPO157262   949  25 1950-2009 0.56 M-v 38h MPCALB     0000   (2499) Brunk              20090426
02500   12.8   0.15 K107N  35.47570  159.85393   48.04408    6.98987  0.0992276  0.29396321   2.2401343  1 MPO 47590   436  15 1926-2003 0.67 M-v 38h MPCW       0000   (2500) Alascattalo        20030604
02501   12.08  0.15 K107N  18.74475  228.68455   11.11656    3.31520  0.1944864  0.26147412   2.4220526  0 MPO135425   980  29 1942-2008 0.59 M-v 38h MPCW       0000   (2501) Lohja              20080130
02502   11.7   0.15 K107N 150.39232  130.31063   14.93262   17.80894  0.2240609  0.19618544   2.9333116  1 MPO 87239   285  15 1933-2005 0.61 M-v 38h MPCW       0000   (2502) Nummela            20050922
02503   13.9   0.15 K107N 279.66175   16.13815   11.93673    7.10683  0.2131719  0.30369989   2.1919953  1 MPO 65989   201  12 1965-2004 0.62 M-v 38h MPCW       0000   (2503) Liaoning           20040812
02504   12.1   0.15 K107N 209.98486  160.78614   10.05291    4.07671  0.0861811  0.21455011   2.7634412  1 MPO  3854   171  19 1954-2000 0.89 M-v 38h Williams   0000   (2504) Gaviola            20000905
02505   11.3   0.15 K107N 172.71663  208.11722   59.24740    2.07976  0.1743122  0.17711956   3.1402076  1 MPC 38010   175  21 1950-2000 0.75 M-v 38h Williams   0000   (2505) Hebei              20000113
02506   11.8   0.15 K107N 210.31314  288.47552  164.96570    2.16499  0.0233433  0.19973144   2.8984897  0 MPO169562  1059  23 1959-2009 0.57 M-v 38h MPCMEL     0000   (2506) Pirogov            20090909
02507   11.7   0.15 K107N 252.42879  100.62309  130.00212   10.32429  0.0839923  0.21266337   2.7797618  0 MPO 47590   286  18 1932-2003 0.70 M-v 38h MPCW       0000   (2507) Bobone             20030514
02508   13.5   0.15 K107N 302.80014  119.47840  191.53614    6.08168  0.1268360  0.27046429   2.3680785  0 MPO120681   588  18 1951-2007 0.57 M-v 38h MPCW       0000   (2508) Alupka             20070524
02509   12.6   0.15 K107N 188.13505  348.37081  343.76839    2.84997  0.1926306  0.25594823   2.4567896  1 MPO 47590   328  18 1931-2003 0.68 M-v 38h MPCW       0000   (2509) Chukotka           20030601
02510   12.60  0.15 K107N  76.40527  209.34793  102.96245    5.26877  0.1969124  0.29155364   2.2524599  0 MPO153984   855  18 1942-2009 0.52 M-v 38h MPCAPO     0000   (2510) Shandong           20090221
02511   12.5   0.15 K107N 213.34942  189.65584   85.58749    8.04847  0.1041650  0.28285112   2.2984273  1 MPO 13522   119  16 1955-2001 0.67 M-v 38h Williams   0000   (2511) Patterson          20010526
02512   12.4   0.15 K107N  68.62145   15.02649   69.56075    6.37923  0.1203907  0.29316077   2.2442203  0 MPO169562   772  23 1940-2010 0.55 M-v 38h MPCAPO     0000   (2512) Tavastia           20100106
02513   13.4   0.15 K107N 117.12213   97.72344  257.68829    3.16196  0.1804395  0.28505558   2.2865622  0 MPO135425   694  19 1943-2008 0.57 M-v 38h MPCW       0000   (2513) Baetsle            20080210
02514   12.7   0.15 K107N 222.93460   13.54706  358.78514    2.34328  0.0998603  0.22836759   2.6508169  0 MPO169562   875  17 1964-2010 0.52 M-v 38h MPCADO     0000   (2514) Taiyuan            20100118
02515   12.6   0.15 K107N  18.95802  352.72010   55.56403    4.03255  0.1902493  0.17334968   3.1855715  0 MPO 47590   273  14 1953-2002 0.62 M-v 38h MPCW       0000   (2515) Gansu              20020705
02516   13.7   0.15 K107N  84.64672  313.63890  123.38687    1.09310  0.1640682  0.28625909   2.2801488  0 MPO139102   693  15 1964-2008 0.58 M-v 38h MPCW       0000   (2516) Roman              20080506
02517   11.8   0.15 K107N 141.38554  295.97969   72.31322    2.62862  0.1729922  0.17336488   3.1853853  0 MPO164081   889  21 1955-2009 0.54 M-v 38h MPCMEL     0000   (2517) Orma               20091025
02518   13.4   0.15 K107N  84.45904   38.99042  205.63627    5.91795  0.1717510  0.28067635   2.3102847  0 MPO121724   473  12 1954-2007 0.59 M-v 38h MPCW       0000   (2518) Rutllant           20070722
02519   11.4   0.15 K107N 139.51569  226.31542   83.86982    2.42186  0.1724150  0.17709630   3.1404826  0 MPO169562  1031  27 1958-2010 0.61 M-v 38h MPCMEL     0000   (2519) Annagerman         20100107
02520   12.0   0.15 K107N  90.15166  316.32986    6.78107    6.24063  0.0978618  0.18036189   3.1024600  0 MPO 47590   302  14 1954-2003 0.70 M-v 38h MPCW       0000   (2520) Novorossijsk       20030505
02521   11.7   0.15 K107N 257.02508  248.03027  281.36537    7.72448  0.0920000  0.21130517   2.7916607  0 MPO110568   626  15 1960-2006 0.54 M-v 38h MPCW       0000   (2521) Heidi              20061121
02522   11.3   0.15 K107N  55.99251  241.06721  272.86342    8.76764  0.0572512  0.18802933   3.0175351  0 MPO169562   779  18 1950-2010 0.56 M-v 38h MPCALB     0000   (2522) Triglav            20100120
02523   11.2   0.15 K107N   8.91682  279.75417  282.83561    8.89504  0.0409892  0.18812058   3.0165592  0 MPO148743   739  21 1952-2008 0.56 M-v 38h MPCMEL     0000   (2523) Ryba               20081120
02524   10.9   0.15 K107N 124.02980   20.41543  278.94795    0.29008  0.1605989  0.17954331   3.1118828  0 MPO 30233   272  17 1931-2002 0.75 M-v 38h MPCW       0000   (2524) Budovicium         20020420
02525   10.5   0.15 K107N  81.15143  284.26064   87.03806    2.77173  0.1847024  0.17685026   3.1433947  0 MPO 47590   299  23 1931-2002 0.74 M-v 38h MPCW       0000   (2525) O'Steen            20020705
02526   11.9   0.15 K107N 321.47002   62.34680   16.44016    3.27916  0.1693446  0.17655174   3.1469370  0 MPO 47590   270  14 1971-2002 0.66 M-v 38h MPCW       0000   (2526) Alisary            20020626
02527   13.1   0.15 K107N 156.31319  177.74421  186.37977    2.61426  0.1851026  0.25444716   2.4664424  0 MPO164081   883  21 1954-2009 0.58 M-v 38h MPCAPO     0000   (2527) Gregory            20091023
02528   12.1   0.15 K107N  89.67953  182.29563  162.64214    0.50844  0.1778347  0.17703830   3.1411685  0 MPO169562   947  26 1950-2010 0.56 M-v 38h MPCMEL     0000   (2528) Mohler             20100113
02529   12.8   0.15 K107N  76.32749  115.41415  207.22113    4.40567  0.0959944  0.24448247   2.5330139  0 MPO157262   783  19 1953-2009 0.56 M-v 38h MPCALI     0000   (2529) Rockwell Kent      20090426
02530   11.7   0.15 K107N 353.67372  156.71686  198.73162   10.10246  0.1296500  0.18786705   3.0192724  0 MPO 47590   338  16 1963-2003 0.65 M-v 38h MPCW       0000   (2530) Shipka             20030508
02531   10.9   0.15 K107N  64.52437   35.94729  104.41074   11.03675  0.0570903  0.18883847   3.0089091  0 MPO 47590   297  19 1931-2003 0.68 M-v 38h MPCW       0000   (2531) Cambridge          20030211
02532   12.7   0.15 K107N  69.37261    7.91856  345.21753    4.33780  0.1710674  0.26977750   2.3720958  1 MPO 77284   439  14 1953-2005 0.62 M-v 38h MPCW       0000   (2532) Sutton             20050218
02533   11.7   0.15 K107N  61.72646  223.98364  201.32287    1.56468  0.1636205  0.18044927   3.1014584  0 MPO135425   750  24 1948-2007 0.63 M-v 38h MPCW       0000   (2533) Fechtig            20070615
02534   10.9   0.15 K107N  63.96134  200.35468  167.95048    0.80768  0.1751344  0.17698380   3.1418133  1 MPO  2608   240  22 1931-2000 0.78 M-v 38h Williams   0000   (2534) Houzeau            20000526
02535   12.2   0.15 K107N 140.66371  309.00254  172.83778    3.42821  0.0808665  0.29415697   2.2391505  0 MPO171885   988  22 1939-2010 0.54 M-v 38h MPCALI     0000   (2535) Hameenlinna        20100122
02536   12.3   0.15 K107N  65.99855   90.30663  275.23391    4.86819  0.2275321  0.28149876   2.3057828  0 MPO155864   753  18 1939-2009 0.57 M-v 38h MPCADO     0000   (2536) Kozyrev            20090328
